[
    {
        "Altitude(m)": 604221.2031107284,
        "Argument of Periapsis(deg)": 0.0,
        "Eccentricity": 0.0,
        "Inclination(deg)": 60.0,
        "Latitude(deg)": 14.117238917032054,
        "Longitude(deg)": -16.6658754192377,
        "Mean Anomaly(deg)": 16.363599999999998,
        "RAAN(deg)": 75.0,
        "Satellite Name": "Test1 331",
        "Satellite Number": 331,
        "Semi-Major Axis(m)": 6980739.136638005,
        "Time(s)": 0
    },
    {
        "Altitude(m)": 604235.3440888504,
        "Argument of Periapsis(deg)": 0.00010418945913296404,
        "Eccentricity": 0.0,
        "Inclination(deg)": 60.0,
        "Latitude(deg)": 14.651636272972738,
        "Longitude(deg)": -16.377429638559637,
        "Mean Anomaly(deg)": 16.983706145461838,
        "RAAN(deg)": 74.99957995086027,
        "Satellite Name": "Test1 331",
        "Satellite Number": 331,
        "Semi-Major Axis(m)": 6980739.136638005,
        "Time(s)": 10
    }
]